[{"OBJECT_NAME":"COSMOS 2570","OBJECT_ID":"2023-165A","EPOCH":"2026-03-09T22:28:49.439712","MEAN_MOTION":13.9667423,"ECCENTRICITY":0.00055388,"INCLINATION":67.1495,"RA_OF_ASC_NODE":170.6508,"ARG_OF_PERICENTER":278.5801,"MEAN_ANOMALY":81.4656,"EPHEMERIS_TYPE":0,"CLASSIFICATION_TYPE":"U","NORAD_CAT_ID":58148,"ELEMENT_SET_NO":999,"REV_AT_EPOCH":12077,"BSTAR":2.806806e-5,"MEAN_MOTION_DOT":-3.6e-7,"MEAN_MOTION_DDOT":0},{"OBJECT_NAME":"FENGYUN 1C DEB","OBJECT_ID":"1999-025GF","EPOCH":"2026-03-09T16:10:04.256832","MEAN_MOTION":14.1365197,"ECCENTRICITY":0.0116918,"INCLINATION":98.3628,"RA_OF_ASC_NODE":3.0749,"ARG_OF_PERICENTER":274.5821,"MEAN_ANOMALY":204.0831,"EPHEMERIS_TYPE":0,"CLASSIFICATION_TYPE":"U","NORAD_CAT_ID":29885,"ELEMENT_SET_NO":999,"REV_AT_EPOCH":98685,"BSTAR":0.00017949,"MEAN_MOTION_DOT":3.2e-6,"MEAN_MOTION_DDOT":0}]
